{"type":"FeatureCollection","features":[{"type":"Feature","id":"vietnam","properties":{"id":"vietnam","slug":"vietnam","name":"Vietnam","tier":"core","iso3":"VNM","iso2":"VN","tiny":true},"geometry":{"type":"Point","coordinates":[106.08007794904279,16.60064541103603]}},{"type":"Feature","id":"holy-see","properties":{"id":"holy-see","slug":"holy-see","name":"Holy See","tier":"core","iso3":"VAT","iso2":"VA","tiny":true},"geometry":{"type":"Point","coordinates":[12.434228515625017,41.901123046875]}},{"type":"Feature","id":"vanuatu","properties":{"id":"vanuatu","slug":"vanuatu","name":"Vanuatu","tier":"core","iso3":"VUT","iso2":"VU","tiny":true},"geometry":{"type":"Point","coordinates":[166.87425242456902,-15.149686826508624]}},{"type":"Feature","id":"uzbekistan","properties":{"id":"uzbekistan","slug":"uzbekistan","name":"Uzbekistan","tier":"core","iso3":"UZB","iso2":"UZ","tiny":true},"geometry":{"type":"Point","coordinates":[65.415535522964,41.40631838470566]}},{"type":"Feature","id":"micronesia","properties":{"id":"micronesia","slug":"micronesia","name":"Micronesia","tier":"core","iso3":"FSM","iso2":"FM","tiny":true},"geometry":{"type":"Point","coordinates":[158.23799715909092,6.875319602272724]}},{"type":"Feature","id":"marshall-islands","properties":{"id":"marshall-islands","slug":"marshall-islands","name":"Marshall Islands","tier":"core","iso3":"MHL","iso2":"MH","tiny":true},"geometry":{"type":"Point","coordinates":[171.19824218750003,7.1082722981770745]}},{"type":"Feature","id":"northern-mariana-islands","properties":{"id":"northern-mariana-islands","slug":"northern-mariana-islands","name":"Northern Mariana Islands","tier":"profiled-additional","iso3":"MNP","iso2":"MP","tiny":true},"geometry":{"type":"Point","coordinates":[145.75279296875004,15.174697265624996]}},{"type":"Feature","id":"us-virgin-islands","properties":{"id":"us-virgin-islands","slug":"us-virgin-islands","name":"U.S. Virgin Islands","tier":"profiled-additional","iso3":"VIR","iso2":"VI","tiny":true},"geometry":{"type":"Point","coordinates":[-64.75052315848214,17.752734375]}},{"type":"Feature","id":"guam","properties":{"id":"guam","slug":"guam","name":"Guam","tier":"profiled-additional","iso3":"GUM","iso2":"GU","tiny":true},"geometry":{"type":"Point","coordinates":[144.77316894531256,13.429471842447915]}},{"type":"Feature","id":"american-samoa","properties":{"id":"american-samoa","slug":"american-samoa","name":"American Samoa","tier":"profiled-additional","iso3":"ASM","iso2":"AS","tiny":true},"geometry":{"type":"Point","coordinates":[-170.7076110839844,-14.307080078125006]}},{"type":"Feature","id":"south-georgia","properties":{"id":"south-georgia","slug":"south-georgia","name":"South Georgia and the South Sandwich Islands","tier":"index-only","iso3":"SGS","iso2":"GS","tiny":true},"geometry":{"type":"Point","coordinates":[-36.7223908025568,-54.336489701704565]}},{"type":"Feature","id":"british-indian-ocean-territory","properties":{"id":"british-indian-ocean-territory","slug":"british-indian-ocean-territory","name":"British Indian Ocean Territory","tier":"index-only","iso3":"IOT","iso2":"IO","tiny":true},"geometry":{"type":"Point","coordinates":[72.4487477022059,-7.321449908088241]}},{"type":"Feature","id":"saint-helena","properties":{"id":"saint-helena","slug":"saint-helena","name":"Saint Helena","tier":"profiled-additional","iso3":"SHN","iso2":"SH","tiny":true},"geometry":{"type":"Point","coordinates":[-5.710274832589278,-15.96372767857144]}},{"type":"Feature","id":"pitcairn","properties":{"id":"pitcairn","slug":"pitcairn","name":"Pitcairn","tier":"index-only","iso3":"PCN","iso2":"PN","tiny":true},"geometry":{"type":"Point","coordinates":[-128.31308593749998,-24.371050347222226]}},{"type":"Feature","id":"anguilla","properties":{"id":"anguilla","slug":"anguilla","name":"Anguilla","tier":"profiled-additional","iso3":"AIA","iso2":"AI","tiny":true},"geometry":{"type":"Point","coordinates":[-63.053564453125,18.224959309895826]}},{"type":"Feature","id":"cayman-islands","properties":{"id":"cayman-islands","slug":"cayman-islands","name":"Cayman Islands","tier":"profiled-additional","iso3":"CYM","iso2":"KY","tiny":true},"geometry":{"type":"Point","coordinates":[-81.30120943509615,19.328812349759616]}},{"type":"Feature","id":"bermuda","properties":{"id":"bermuda","slug":"bermuda","name":"Bermuda","tier":"profiled-additional","iso3":"BMU","iso2":"BM","tiny":true},"geometry":{"type":"Point","coordinates":[-64.76533813476561,32.307409667968756]}},{"type":"Feature","id":"british-virgin-islands","properties":{"id":"british-virgin-islands","slug":"british-virgin-islands","name":"British Virgin Islands","tier":"profiled-additional","iso3":"VGB","iso2":"VG","tiny":true},"geometry":{"type":"Point","coordinates":[-64.61707589285713,18.420486886160713]}},{"type":"Feature","id":"turks-and-caicos-islands","properties":{"id":"turks-and-caicos-islands","slug":"turks-and-caicos-islands","name":"Turks and Caicos Islands","tier":"profiled-additional","iso3":"TCA","iso2":"TC","tiny":true},"geometry":{"type":"Point","coordinates":[-71.72216796874997,21.797732204861106]}},{"type":"Feature","id":"montserrat","properties":{"id":"montserrat","slug":"montserrat","name":"Montserrat","tier":"profiled-additional","iso3":"MSR","iso2":"MS","tiny":true},"geometry":{"type":"Point","coordinates":[-62.180419921875,16.746700613839284]}},{"type":"Feature","id":"jersey","properties":{"id":"jersey","slug":"jersey","name":"Jersey","tier":"profiled-additional","iso3":"JEY","iso2":"JE","tiny":true},"geometry":{"type":"Point","coordinates":[-2.0995822482638764,49.20955946180555]}},{"type":"Feature","id":"guernsey","properties":{"id":"guernsey","slug":"guernsey","name":"Guernsey","tier":"profiled-additional","iso3":"GGY","iso2":"GG","tiny":true},"geometry":{"type":"Point","coordinates":[-2.560030691964272,49.47854352678571]}},{"type":"Feature","id":"isle-of-man","properties":{"id":"isle-of-man","slug":"isle-of-man","name":"Isle of Man","tier":"profiled-additional","iso3":"IMN","iso2":"IM","tiny":true},"geometry":{"type":"Point","coordinates":[-4.5454069010416545,54.222522786458335]}},{"type":"Feature","id":"trinidad-and-tobago","properties":{"id":"trinidad-and-tobago","slug":"trinidad-and-tobago","name":"Trinidad and Tobago","tier":"core","iso3":"TTO","iso2":"TT","tiny":true},"geometry":{"type":"Point","coordinates":[-61.32456705729165,10.457853190104162]}},{"type":"Feature","id":"tonga","properties":{"id":"tonga","slug":"tonga","name":"Tonga","tier":"core","iso3":"TON","iso2":"TO","tiny":true},"geometry":{"type":"Point","coordinates":[-175.2091674804687,-21.149444580078132]}},{"type":"Feature","id":"singapore","properties":{"id":"singapore","slug":"singapore","name":"Singapore","tier":"core","iso3":"SGP","iso2":"SG","tiny":true},"geometry":{"type":"Point","coordinates":[103.86655815972222,1.366417100694439]}},{"type":"Feature","id":"seychelles","properties":{"id":"seychelles","slug":"seychelles","name":"Seychelles","tier":"core","iso3":"SYC","iso2":"SC","tiny":true},"geometry":{"type":"Point","coordinates":[55.48194580078126,-4.679931640625009]}},{"type":"Feature","id":"sao-tome-and-principe","properties":{"id":"sao-tome-and-principe","slug":"sao-tome-and-principe","name":"Sao Tome and Principe","tier":"core","iso3":"STP","iso2":"ST","tiny":true},"geometry":{"type":"Point","coordinates":[6.598006184895849,0.2244873046874929]}},{"type":"Feature","id":"san-marino","properties":{"id":"san-marino","slug":"san-marino","name":"San Marino","tier":"core","iso3":"SMR","iso2":"SM","tiny":true},"geometry":{"type":"Point","coordinates":[12.464746093750014,43.93666294642856]}},{"type":"Feature","id":"saint-vincent-and-the-grenadines","properties":{"id":"saint-vincent-and-the-grenadines","slug":"saint-vincent-and-the-grenadines","name":"Saint Vincent and the Grenadines","tier":"core","iso3":"VCT","iso2":"VC","tiny":true},"geometry":{"type":"Point","coordinates":[-61.19023925781249,13.249804687499994]}},{"type":"Feature","id":"saint-lucia","properties":{"id":"saint-lucia","slug":"saint-lucia","name":"Saint Lucia","tier":"core","iso3":"LCA","iso2":"LC","tiny":true},"geometry":{"type":"Point","coordinates":[-60.96753417968748,13.911406249999995]}},{"type":"Feature","id":"saint-kitts-and-nevis","properties":{"id":"saint-kitts-and-nevis","slug":"saint-kitts-and-nevis","name":"Saint Kitts and Nevis","tier":"core","iso3":"KNA","iso2":"KN","tiny":true},"geometry":{"type":"Point","coordinates":[-62.73583608774038,17.310802283653842]}},{"type":"Feature","id":"palau","properties":{"id":"palau","slug":"palau","name":"Palau","tier":"core","iso3":"PLW","iso2":"PW","tiny":true},"geometry":{"type":"Point","coordinates":[134.58779296875,7.5196573893229095]}},{"type":"Feature","id":"niue","properties":{"id":"niue","slug":"niue","name":"Niue","tier":"profiled-additional","iso3":"NIU","iso2":"NU","tiny":true},"geometry":{"type":"Point","coordinates":[-169.85709228515626,-19.043029785156257]}},{"type":"Feature","id":"cook-islands","properties":{"id":"cook-islands","slug":"cook-islands","name":"Cook Islands","tier":"profiled-additional","iso3":"COK","iso2":"CK","tiny":true},"geometry":{"type":"Point","coordinates":[-159.78510298295456,-21.2255770596591]}},{"type":"Feature","id":"aruba","properties":{"id":"aruba","slug":"aruba","name":"Aruba","tier":"profiled-additional","iso3":"ABW","iso2":"AW","tiny":true},"geometry":{"type":"Point","coordinates":[-69.96773437499999,12.507226562499994]}},{"type":"Feature","id":"curacao","properties":{"id":"curacao","slug":"curacao","name":"Curaçao","tier":"profiled-additional","iso3":"CUW","iso2":"CW","tiny":true},"geometry":{"type":"Point","coordinates":[-68.96490234374998,12.209072265624995]}},{"type":"Feature","id":"nauru","properties":{"id":"nauru","slug":"nauru","name":"Nauru","tier":"core","iso3":"NRU","iso2":"NR","tiny":true},"geometry":{"type":"Point","coordinates":[166.93592529296876,-0.5174560546875036]}},{"type":"Feature","id":"monaco","properties":{"id":"monaco","slug":"monaco","name":"Monaco","tier":"core","iso3":"MCO","iso2":"MC","tiny":true},"geometry":{"type":"Point","coordinates":[7.411648995535728,43.75479213169643]}},{"type":"Feature","id":"mauritius","properties":{"id":"mauritius","slug":"mauritius","name":"Mauritius","tier":"core","iso3":"MUS","iso2":"MU","tiny":true},"geometry":{"type":"Point","coordinates":[57.5453125,-20.297337582236846]}},{"type":"Feature","id":"malta","properties":{"id":"malta","slug":"malta","name":"Malta","tier":"core","iso3":"MLT","iso2":"MT","tiny":true},"geometry":{"type":"Point","coordinates":[14.473815917968764,35.88021850585937]}},{"type":"Feature","id":"maldives","properties":{"id":"maldives","slug":"maldives","name":"Maldives","tier":"core","iso3":"MDV","iso2":"MV","tiny":true},"geometry":{"type":"Point","coordinates":[73.50502554086539,4.197359525240381]}},{"type":"Feature","id":"luxembourg","properties":{"id":"luxembourg","slug":"luxembourg","name":"Luxembourg","tier":"core","iso3":"LUX","iso2":"LU","tiny":true},"geometry":{"type":"Point","coordinates":[6.062349269701097,49.762631623641305]}},{"type":"Feature","id":"liechtenstein","properties":{"id":"liechtenstein","slug":"liechtenstein","name":"Liechtenstein","tier":"core","iso3":"LIE","iso2":"LI","tiny":true},"geometry":{"type":"Point","coordinates":[9.547135416666679,47.14267578125]}},{"type":"Feature","id":"lebanon","properties":{"id":"lebanon","slug":"lebanon","name":"Lebanon","tier":"core","iso3":"LBN","iso2":"LB","tiny":true},"geometry":{"type":"Point","coordinates":[35.97088268649195,33.86063901839717]}},{"type":"Feature","id":"kiribati","properties":{"id":"kiribati","slug":"kiribati","name":"Kiribati","tier":"core","iso3":"KIR","iso2":"KI","tiny":true},"geometry":{"type":"Point","coordinates":[-157.39965471540177,1.8877720424107076]}},{"type":"Feature","id":"guatemala","properties":{"id":"guatemala","slug":"guatemala","name":"Guatemala","tier":"core","iso3":"GTM","iso2":"GT","tiny":true},"geometry":{"type":"Point","coordinates":[-90.22665039062501,15.556898352581522]}},{"type":"Feature","id":"grenada","properties":{"id":"grenada","slug":"grenada","name":"Grenada","tier":"core","iso3":"GRD","iso2":"GD","tiny":true},"geometry":{"type":"Point","coordinates":[-61.70316840277777,12.098562282986105]}},{"type":"Feature","id":"gabon","properties":{"id":"gabon","slug":"gabon","name":"Gabon","tier":"core","iso3":"GAB","iso2":"GA","tiny":true},"geometry":{"type":"Point","coordinates":[11.622207968173441,-0.8627626989160576]}},{"type":"Feature","id":"saint-pierre-and-miquelon","properties":{"id":"saint-pierre-and-miquelon","slug":"saint-pierre-and-miquelon","name":"Saint Pierre and Miquelon","tier":"profiled-additional","iso3":"SPM","iso2":"PM","tiny":true},"geometry":{"type":"Point","coordinates":[-56.32481770833332,46.937880859375]}},{"type":"Feature","id":"wallis-and-futuna","properties":{"id":"wallis-and-futuna","slug":"wallis-and-futuna","name":"Wallis and Futuna","tier":"profiled-additional","iso3":"WLF","iso2":"WF","tiny":true},"geometry":{"type":"Point","coordinates":[-178.11317816840278,-14.287847222222227]}},{"type":"Feature","id":"saint-martin","properties":{"id":"saint-martin","slug":"saint-martin","name":"Saint Martin","tier":"profiled-additional","iso3":"MAF","iso2":"MF","tiny":true},"geometry":{"type":"Point","coordinates":[-63.05110212053571,18.090039062499994]}},{"type":"Feature","id":"saint-barthelemy","properties":{"id":"saint-barthelemy","slug":"saint-barthelemy","name":"Saint Barthélemy","tier":"profiled-additional","iso3":"BLM","iso2":"BL","tiny":true},"geometry":{"type":"Point","coordinates":[-62.843554687499996,17.896022727272726]}},{"type":"Feature","id":"french-polynesia","properties":{"id":"french-polynesia","slug":"french-polynesia","name":"French Polynesia","tier":"profiled-additional","iso3":"PYF","iso2":"PF","tiny":true},"geometry":{"type":"Point","coordinates":[-149.38729553222657,-17.687799072265626]}},{"type":"Feature","id":"french-southern-territories","properties":{"id":"french-southern-territories","slug":"french-southern-territories","name":"French Southern Territories","tier":"index-only","iso3":"ATF","iso2":"TF","tiny":true},"geometry":{"type":"Point","coordinates":[69.56320628156563,-49.284019886363645]}},{"type":"Feature","id":"aland-islands","properties":{"id":"aland-islands","slug":"aland-islands","name":"Åland Islands","tier":"profiled-additional","iso3":"ALA","iso2":"AX","tiny":true},"geometry":{"type":"Point","coordinates":[19.954101562500014,60.26675567626954]}},{"type":"Feature","id":"dominica","properties":{"id":"dominica","slug":"dominica","name":"Dominica","tier":"core","iso3":"DMA","iso2":"DM","tiny":true},"geometry":{"type":"Point","coordinates":[-61.361201171874995,15.437182617187498]}},{"type":"Feature","id":"faroe-islands","properties":{"id":"faroe-islands","slug":"faroe-islands","name":"Faroe Islands","tier":"profiled-additional","iso3":"FRO","iso2":"FO","tiny":true},"geometry":{"type":"Point","coordinates":[-6.800841567095576,62.12086397058823]}},{"type":"Feature","id":"comoros","properties":{"id":"comoros","slug":"comoros","name":"Comoros","tier":"core","iso3":"COM","iso2":"KM","tiny":true},"geometry":{"type":"Point","coordinates":[43.36804547991073,-11.669587053571433]}},{"type":"Feature","id":"macau","properties":{"id":"macau","slug":"macau","name":"Macau","tier":"profiled-additional","iso3":"MAC","iso2":"MO","tiny":true},"geometry":{"type":"Point","coordinates":[113.50407986111114,22.21551106770833]}},{"type":"Feature","id":"hong-kong","properties":{"id":"hong-kong","slug":"hong-kong","name":"Hong Kong","tier":"profiled-additional","iso3":"HKG","iso2":"HK","tiny":true},"geometry":{"type":"Point","coordinates":[114.14216202445651,22.459876019021728]}},{"type":"Feature","id":"cabo-verde","properties":{"id":"cabo-verde","slug":"cabo-verde","name":"Cabo Verde","tier":"core","iso3":"CPV","iso2":"CV","tiny":true},"geometry":{"type":"Point","coordinates":[-23.649166434151773,15.130814034598211]}},{"type":"Feature","id":"brunei","properties":{"id":"brunei","slug":"brunei","name":"Brunei","tier":"core","iso3":"BRN","iso2":"BN","tiny":true},"geometry":{"type":"Point","coordinates":[114.62487304687502,4.524876708984369]}},{"type":"Feature","id":"barbados","properties":{"id":"barbados","slug":"barbados","name":"Barbados","tier":"core","iso3":"BRB","iso2":"BB","tiny":true},"geometry":{"type":"Point","coordinates":[-59.54626736111111,13.16099717881944]}},{"type":"Feature","id":"bahrain","properties":{"id":"bahrain","slug":"bahrain","name":"Bahrain","tier":"core","iso3":"BHR","iso2":"BH","tiny":true},"geometry":{"type":"Point","coordinates":[50.549707031250016,26.050961538461536]}},{"type":"Feature","id":"australia","properties":{"id":"australia","slug":"australia","name":"Australia","tier":"core","iso3":"AUS","iso2":"AU","tiny":true},"geometry":{"type":"Point","coordinates":[105.6658420138889,-10.486621093750006]}},{"type":"Feature","id":"heard-island","properties":{"id":"heard-island","slug":"heard-island","name":"Heard Island and McDonald Islands","tier":"index-only","iso3":"HMD","iso2":"HM","tiny":true},"geometry":{"type":"Point","coordinates":[73.51009114583336,-53.075566406250005]}},{"type":"Feature","id":"norfolk-island","properties":{"id":"norfolk-island","slug":"norfolk-island","name":"Norfolk Island","tier":"profiled-additional","iso3":"NFK","iso2":"NF","tiny":true},"geometry":{"type":"Point","coordinates":[167.9432767427885,-29.056768329326925]}},{"type":"Feature","id":"antigua-and-barbuda","properties":{"id":"antigua-and-barbuda","slug":"antigua-and-barbuda","name":"Antigua and Barbuda","tier":"core","iso3":"ATG","iso2":"AG","tiny":true},"geometry":{"type":"Point","coordinates":[-61.76171875,17.072957356770825]}},{"type":"Feature","id":"andorra","properties":{"id":"andorra","slug":"andorra","name":"Andorra","tier":"core","iso3":"AND","iso2":"AD","tiny":true},"geometry":{"type":"Point","coordinates":[1.563245271381591,42.5299650493421]}},{"type":"Feature","id":"sint-maarten","properties":{"id":"sint-maarten","slug":"sint-maarten","name":"Sint Maarten","tier":"profiled-additional","iso3":"SXM","iso2":"SX","tiny":true},"geometry":{"type":"Point","coordinates":[-63.07253766741071,18.05387834821428]}},{"type":"Feature","id":"tuvalu","properties":{"id":"tuvalu","slug":"tuvalu","name":"Tuvalu","tier":"core","iso3":"TUV","iso2":"TV","tiny":true},"geometry":{"type":"Point","coordinates":[179.20522460937502,-8.505820312500004]}},{"type":"Feature","id":"samoa","properties":{"id":"samoa","slug":"samoa","name":"Samoa","tier":"core","iso3":"WSM","iso2":"WS","tiny":true},"geometry":{"type":"Point","coordinates":[-172.41373026688336,-13.637369985140253]}},{"type":"Feature","id":"new-zealand","properties":{"id":"new-zealand","slug":"new-zealand","name":"New Zealand","tier":"core","iso3":"NZL","iso2":"NZ","tiny":true},"geometry":{"type":"Point","coordinates":[-172.4850894267602,-8.564862441025753]}},{"type":"Feature","id":"france","properties":{"id":"france","slug":"france","name":"France","tier":"core","iso3":"FRA","iso2":"FR","tiny":true},"geometry":{"type":"Point","coordinates":[-61.66602372907829,16.179994615132387]}},{"type":"Feature","id":"palestine","properties":{"id":"palestine","slug":"palestine","name":"Palestine","tier":"core","iso3":"PSE","iso2":"PS","tiny":true},"geometry":{"type":"Point","coordinates":[35.2566493857837,32.10111074784294]}},{"type":"Feature","id":"norway","properties":{"id":"norway","slug":"norway","name":"Norway","tier":"core","iso3":"NOR","iso2":"NO","tiny":true},"geometry":{"type":"Point","coordinates":[-8.420617438175157,71.02824880643254]}},{"type":"Feature","id":"portugal","properties":{"id":"portugal","slug":"portugal","name":"Portugal","tier":"core","iso3":"PRT","iso2":"PT","tiny":true},"geometry":{"type":"Point","coordinates":[-28.423474244011175,38.48233011770992]}},{"type":"Feature","id":"spain","properties":{"id":"spain","slug":"spain","name":"Spain","tier":"core","iso3":"ESP","iso2":"ES","tiny":true},"geometry":{"type":"Point","coordinates":[-16.592772263568634,28.228989968662177]}},{"type":"Feature","id":"gibraltar","properties":{"id":"gibraltar","slug":"gibraltar","name":"Gibraltar","tier":"profiled-additional","iso3":"GIB","iso2":"GI","tiny":true},"geometry":{"type":"Point","coordinates":[-5.369102999177471,36.12781551432528]}},{"type":"Feature","id":"netherlands","properties":{"id":"netherlands","slug":"netherlands","name":"Netherlands","tier":"core","iso3":"NLD","iso2":"NL","tiny":true},"geometry":{"type":"Point","coordinates":[-68.25205710897522,12.182538157764933]}}]}
